SENTINEL-6              
1 46984U 20086A   24278.22565297 -.00000032  00000+0  12785-3 0  9999
2 46984  66.0444 344.7990 0007865 269.1981  90.8133 12.80928585180916
